{"type":"FeatureCollection","name":"Wade's Plumbing & Septic Service Areas","features":[{"type":"Feature","id":"service-coverage","properties":{"id":"service-coverage","name":"Wade's Service Coverage","tier":"primary","description":"Primary service coverage across Santa Cruz County and the mountain foothills into Los Gatos and Saratoga \u2014 generally west of the Highway 101 corridor. Call with the property address to confirm."},"geometry":{"type":"Polygon","coordinates":[[[-122.318,37.187],[-122.289,37.087],[-122.185,37.004],[-122.106,36.956],[-121.987,36.96],[-121.907,36.969],[-121.8,36.859],[-121.777,36.883],[-121.737,36.908],[-121.67,36.909],[-121.643,36.895],[-121.581,36.919],[-121.59,36.975],[-121.61,37.03],[-121.64,37.08],[-121.675,37.125],[-121.72,37.165],[-121.78,37.205],[-121.84,37.24],[-121.9,37.27],[-121.955,37.3],[-122.01,37.325],[-122.05,37.32],[-122.085,37.3],[-122.125,37.288],[-122.152,37.286],[-122.2,37.25],[-122.26,37.21],[-122.318,37.187]]]}}]}
